[{"OBJECT_NAME":"GLOBALSTAR M089","OBJECT_ID":"2011-033F","EPOCH":"2026-03-09T05:59:16.284192","MEAN_MOTION":12.62264756,"ECCENTRICITY":1.98e-5,"INCLINATION":51.9921,"RA_OF_ASC_NODE":94.1005,"ARG_OF_PERICENTER":165.4705,"MEAN_ANOMALY":273.7867,"EPHEMERIS_TYPE":0,"CLASSIFICATION_TYPE":"U","NORAD_CAT_ID":37744,"ELEMENT_SET_NO":999,"REV_AT_EPOCH":67816,"BSTAR":2.0006498e-5,"MEAN_MOTION_DOT":-1.0e-6,"MEAN_MOTION_DDOT":0},{"OBJECT_NAME":"COSMOS 1997","OBJECT_ID":"1989-009D","EPOCH":"2026-03-09T22:58:06.295584","MEAN_MOTION":12.63686867,"ECCENTRICITY":0.00089086,"INCLINATION":82.6155,"RA_OF_ASC_NODE":63.8637,"ARG_OF_PERICENTER":202.7684,"MEAN_ANOMALY":217.7075,"EPHEMERIS_TYPE":0,"CLASSIFICATION_TYPE":"U","NORAD_CAT_ID":19788,"ELEMENT_SET_NO":999,"REV_AT_EPOCH":70997,"BSTAR":6.8784789e-5,"MEAN_MOTION_DOT":2.3e-7,"MEAN_MOTION_DDOT":0}]
